{
  "type": "FeatureCollection",
  "features": [
    {
      "type": "Feature",
      "properties": {
        "norad_id": 66590,
        "name": "STARLINK-35429",
        "group": "last-30-days",
        "lat": 38.914045335884424,
        "lon": -5.681585206544611,
        "alt_km": 347.83905433834207,
        "timestamp": "2025-12-05T16:54:13.486677+00:00",
        "meta_object_name": "STARLINK-35429",
        "meta_object_id": "2025-270C",
        "meta_epoch": "2025-12-05T06:00:02.000160",
        "meta_mean_motion": 15.74051532,
        "meta_eccentricity": 0.00017453,
        "meta_inclination": 42.9989,
        "meta_ra_of_asc_node": 237.1092,
        "meta_arg_of_pericenter": 275.2855,
        "meta_mean_anomaly": 141.6451,
        "meta_ephemeris_type": 0,
        "meta_classification_type": "U",
        "meta_norad_cat_id": 66590,
        "meta_element_set_no": 999,
        "meta_rev_at_epoch": 330,
        "meta_bstar": -0.014704023,
        "meta_mean_motion_dot": -0.01883591,
        "meta_mean_motion_ddot": 0,
        "tle_line1": "1 66590U 25270C   25339.25002315 -.01883591  00000+0 -14704-1 0  9995",
        "tle_line2": "2 66590  42.9989 237.1092 0001745 275.2855 141.6451 15.74051532  3305"
      },
      "geometry": {
        "type": "Point",
        "coordinates": [
          -5.681585206544611,
          38.914045335884424
        ]
      }
    },
    {
      "type": "Feature",
      "properties": {
        "norad_id": 66591,
        "name": "STARLINK-36058",
        "group": "last-30-days",
        "lat": 37.51801908640029,
        "lon": -1.1396589480253574,
        "alt_km": 348.04923198561573,
        "timestamp": "2025-12-05T16:54:13.486686+00:00",
        "meta_object_name": "STARLINK-36058",
        "meta_object_id": "2025-270D",
        "meta_epoch": "2025-12-05T06:00:02.000160",
        "meta_mean_motion": 15.74053017,
        "meta_eccentricity": 0.00017398,
        "meta_inclination": 42.9987,
        "meta_ra_of_asc_node": 237.0996,
        "meta_arg_of_pericenter": 277.759,
        "meta_mean_anomaly": 143.0039,
        "meta_ephemeris_type": 0,
        "meta_classification_type": "U",
        "meta_norad_cat_id": 66591,
        "meta_element_set_no": 999,
        "meta_rev_at_epoch": 319,
        "meta_bstar": -0.014712562,
        "meta_mean_motion_dot": -0.0188464,
        "meta_mean_motion_ddot": 0,
        "tle_line1": "1 66591U 25270D   25339.25002315 -.01884640  00000+0 -14713-1 0  9992",
        "tle_line2": "2 66591  42.9987 237.0996 0001739 277.7590 143.0039 15.74053017  3197"
      },
      "geometry": {
        "type": "Point",
        "coordinates": [
          -1.1396589480253574,
          37.51801908640029
        ]
      }
    },
    {
      "type": "Feature",
      "properties": {
        "norad_id": 66592,
        "name": "STARLINK-36066",
        "group": "last-30-days",
        "lat": 36.756224604997215,
        "lon": 1.0649287996326402,
        "alt_km": 348.1431765253092,
        "timestamp": "2025-12-05T16:54:13.486696+00:00",
        "meta_object_name": "STARLINK-36066",
        "meta_object_id": "2025-270E",
        "meta_epoch": "2025-12-05T06:00:02.000160",
        "meta_mean_motion": 15.74046486,
        "meta_eccentricity": 0.00017231,
        "meta_inclination": 42.9987,
        "meta_ra_of_asc_node": 237.0948,
        "meta_arg_of_pericenter": 277.3674,
        "meta_mean_anomaly": 145.3184,
        "meta_ephemeris_type": 0,
        "meta_classification_type": "U",
        "meta_norad_cat_id": 66592,
        "meta_element_set_no": 999,
        "meta_rev_at_epoch": 309,
        "meta_bstar": -0.01466734,
        "meta_mean_motion_dot": -0.01879138,
        "meta_mean_motion_ddot": 0,
        "tle_line1": "1 66592U 25270E   25339.25002315 -.01879138  00000+0 -14667-1 0  9997",
        "tle_line2": "2 66592  42.9987 237.0948 0001723 277.3674 145.3184 15.74046486  3094"
      },
      "geometry": {
        "type": "Point",
        "coordinates": [
          1.0649287996326402,
          36.756224604997215
        ]
      }
    },
    {
      "type": "Feature",
      "properties": {
        "norad_id": 66593,
        "name": "STARLINK-36031",
        "group": "last-30-days",
        "lat": 35.9546451601926,
        "lon": 3.224359550412627,
        "alt_km": 348.2925392363295,
        "timestamp": "2025-12-05T16:54:13.486706+00:00",
        "meta_object_name": "STARLINK-36031",
        "meta_object_id": "2025-270F",
        "meta_epoch": "2025-12-05T06:00:02.000160",
        "meta_mean_motion": 15.74043804,
        "meta_eccentricity": 0.00017468,
        "meta_inclination": 42.9988,
        "meta_ra_of_asc_node": 237.0898,
        "meta_arg_of_pericenter": 279.2675,
        "meta_mean_anomaly": 145.3377,
        "meta_ephemeris_type": 0,
        "meta_classification_type": "U",
        "meta_norad_cat_id": 66593,
        "meta_element_set_no": 999,
        "meta_rev_at_epoch": 319,
        "meta_bstar": -0.014658096,
        "meta_mean_motion_dot": -0.01877941,
        "meta_mean_motion_ddot": 0,
        "tle_line1": "1 66593U 25270F   25339.25002315 -.01877941  00000+0 -14658-1 0  9998",
        "tle_line2": "2 66593  42.9988 237.0898 0001746 279.2675 145.3377 15.74043804  3193"
      },
      "geometry": {
        "type": "Point",
        "coordinates": [
          3.224359550412627,
          35.9546451601926
        ]
      }
    },
    {
      "type": "Feature",
      "properties": {
        "norad_id": 66594,
        "name": "STARLINK-36032",
        "group": "last-30-days",
        "lat": 35.114989999104274,
        "lon": 5.339410862130108,
        "alt_km": 348.26213132957764,
        "timestamp": "2025-12-05T16:54:13.486715+00:00",
        "meta_object_name": "STARLINK-36032",
        "meta_object_id": "2025-270G",
        "meta_epoch": "2025-12-05T06:00:02.000160",
        "meta_mean_motion": 15.74052086,
        "meta_eccentricity": 0.00015872,
        "meta_inclination": 42.9987,
        "meta_ra_of_asc_node": 237.0854,
        "meta_arg_of_pericenter": 274.5611,
        "meta_mean_anomaly": 151.9562,
        "meta_ephemeris_type": 0,
        "meta_classification_type": "U",
        "meta_norad_cat_id": 66594,
        "meta_element_set_no": 999,
        "meta_rev_at_epoch": 293,
        "meta_bstar": -0.014726793,
        "meta_mean_motion_dot": -0.01886013,
        "meta_mean_motion_ddot": 0,
        "tle_line1": "1 66594U 25270G   25339.25002315 -.01886013  00000+0 -14727-1 0  9996",
        "tle_line2": "2 66594  42.9987 237.0854 0001587 274.5611 151.9562 15.74052086  2938"
      },
      "geometry": {
        "type": "Point",
        "coordinates": [
          5.339410862130108,
          35.114989999104274
        ]
      }
    },
    {
      "type": "Feature",
      "properties": {
        "norad_id": 66595,
        "name": "STARLINK-35711",
        "group": "last-30-days",
        "lat": 34.238241952655926,
        "lon": 7.411180406499609,
        "alt_km": 348.4491289145435,
        "timestamp": "2025-12-05T16:54:13.486725+00:00",
        "meta_object_name": "STARLINK-35711",
        "meta_object_id": "2025-270H",
        "meta_epoch": "2025-12-05T06:00:02.000160",
        "meta_mean_motion": 15.74049094,
        "meta_eccentricity": 0.00016099,
        "meta_inclination": 42.9987,
        "meta_ra_of_asc_node": 237.0794,
        "meta_arg_of_pericenter": 279.0788,
        "meta_mean_anomaly": 149.358,
        "meta_ephemeris_type": 0,
        "meta_classification_type": "U",
        "meta_norad_cat_id": 66595,
        "meta_element_set_no": 999,
        "meta_rev_at_epoch": 330,
        "meta_bstar": -0.014705838,
        "meta_mean_motion_dot": -0.01883495,
        "meta_mean_motion_ddot": 0,
        "tle_line1": "1 66595U 25270H   25339.25002315 -.01883495  00000+0 -14706-1 0  9995",
        "tle_line2": "2 66595  42.9987 237.0794 0001609 279.0788 149.3580 15.74049094  3300"
      },
      "geometry": {
        "type": "Point",
        "coordinates": [
          7.411180406499609,
          34.238241952655926
        ]
      }
    },
    {
      "type": "Feature",
      "properties": {
        "norad_id": 66596,
        "name": "STARLINK-35811",
        "group": "last-30-days",
        "lat": 33.328559835366306,
        "lon": 9.438631823832582,
        "alt_km": 348.2128699092982,
        "timestamp": "2025-12-05T16:54:13.486734+00:00",
        "meta_object_name": "STARLINK-35811",
        "meta_object_id": "2025-270J",
        "meta_epoch": "2025-12-05T06:00:02.000160",
        "meta_mean_motion": 15.74025221,
        "meta_eccentricity": 0.00012125,
        "meta_inclination": 42.9988,
        "meta_ra_of_asc_node": 237.0755,
        "meta_arg_of_pericenter": 270.668,
        "meta_mean_anomaly": 159.7,
        "meta_ephemeris_type": 0,
        "meta_classification_type": "U",
        "meta_norad_cat_id": 66596,
        "meta_element_set_no": 999,
        "meta_rev_at_epoch": 330,
        "meta_bstar": -0.014480252,
        "meta_mean_motion_dot": -0.01856379,
        "meta_mean_motion_ddot": 0,
        "tle_line1": "1 66596U 25270J   25339.25002315 -.01856379  00000+0 -14480-1 0  9996",
        "tle_line2": "2 66596  42.9988 237.0755 0001212 270.6680 159.7000 15.74025221  3305"
      },
      "geometry": {
        "type": "Point",
        "coordinates": [
          9.438631823832582,
          33.328559835366306
        ]
      }
    }
  ]
}